{"type": "FeatureCollection", "features": [ {"type": "Feature", "properties": {"norad_id": 32289, "name": "YAOGAN-3", "group": "resource", "lat": 0.3939152840124537, "lon": -154.02720781018337, "alt_km": 601.2606514824602, "timestamp": "2025-12-25T09:48:51.942865+00:00", "meta": {"OBJECT_NAME": "YAOGAN-3", "OBJECT_ID": "2007-055A", "EPOCH": "2025-12-24T23:20:26.140128", "MEAN_MOTION": 14.89915143, "ECCENTRICITY": 0.00013013, "INCLINATION": 97.8354, "RA_OF_ASC_NODE": 25.4861, "ARG_OF_PERICENTER": 85.869, "MEAN_ANOMALY": 274.2676, "EPHEMERIS_TYPE": 0, "CLASSIFICATION_TYPE": "U", "NORAD_CAT_ID": 32289, "ELEMENT_SET_NO": 999, "REV_AT_EPOCH": 97991, "BSTAR": 0.00019314377, "MEAN_MOTION_DOT": 1.803e-05, "MEAN_MOTION_DDOT": 0}, "tle": {"line1": "1 32289U 07055A   25358.97252477  .00001803  00000+0  19314-3 0  9999", "line2": "2 32289  97.8354  25.4861 0001301  85.8690 274.2676 14.89915143979913"}}, "geometry": {"type": "Point", "coordinates": [-154.02720781018337, 0.3939152840124537]}}, {"type": "Feature", "properties": {"norad_id": 32376, "name": "COSMO-SKYMED 2", "group": "resource", "lat": 71.88291488725953, "lon": 25.587668309384494, "alt_km": 614.7692433053198, "timestamp": "2025-12-25T09:48:51.942884+00:00", "meta": {"OBJECT_NAME": "COSMO-SKYMED 2", "OBJECT_ID": "2007-059A", "EPOCH": "2025-12-24T23:36:54.004032", "MEAN_MOTION": 14.82157313, "ECCENTRICITY": 0.00013101, "INCLINATION": 97.8806, "RA_OF_ASC_NODE": 180.1234, "ARG_OF_PERICENTER": 82.4144, "MEAN_ANOMALY": 277.7218, "EPHEMERIS_TYPE": 0, "CLASSIFICATION_TYPE": "U", "NORAD_CAT_ID": 32376, "ELEMENT_SET_NO": 999, "REV_AT_EPOCH": 97619, "BSTAR": 7.6357743e-05, "MEAN_MOTION_DOT": 5.56e-06, "MEAN_MOTION_DDOT": 0}, "tle": {"line1": "1 32376U 07059A   25358.98395838  .00000556  00000+0  76358-4 0  9996", "line2": "2 32376  97.8806 180.1234 0001310  82.4144 277.7218 14.82157313976199"}}, "geometry": {"type": "Point", "coordinates": [25.587668309384494, 71.88291488725953]}}, {"type": "Feature", "properties": {"norad_id": 32382, "name": "RADARSAT-2", "group": "resource", "lat": -19.73926634589272, "lon": -179.29092856748167, "alt_km": 797.2305823200468, "timestamp": "2025-12-25T09:48:51.942896+00:00", "meta": {"OBJECT_NAME": "RADARSAT-2", "OBJECT_ID": "2007-061A", "EPOCH": "2025-12-24T22:48:25.277184", "MEAN_MOTION": 14.29984279, "ECCENTRICITY": 0.0001114, "INCLINATION": 98.5795, "RA_OF_ASC_NODE": 3.3624, "ARG_OF_PERICENTER": 86.235, "MEAN_ANOMALY": 273.896, "EPHEMERIS_TYPE": 0, "CLASSIFICATION_TYPE": "U", "NORAD_CAT_ID": 32382, "ELEMENT_SET_NO": 999, "REV_AT_EPOCH": 94105, "BSTAR": -4.304362e-05, "MEAN_MOTION_DOT": -1.55e-06, "MEAN_MOTION_DDOT": 0}, "tle": {"line1": "1 32382U 07061A   25358.95029256 -.00000155  00000+0 -43044-4 0  9994", "line2": "2 32382  98.5795   3.3624 0001114  86.2350 273.8960 14.29984279941051"}}, "geometry": {"type": "Point", "coordinates": [-179.29092856748167, -19.73926634589272]}}, {"type": "Feature", "properties": {"norad_id": 32783, "name": "CARTOSAT-2A", "group": "resource", "lat": 77.35552677968059, "lon": -93.55425705369466, "alt_km": 631.007373753062, "timestamp": "2025-12-25T09:48:51.942908+00:00", "meta": {"OBJECT_NAME": "CARTOSAT-2A", "OBJECT_ID": "2008-021A", "EPOCH": "2025-12-25T04:29:34.251072", "MEAN_MOTION": 14.78954815, "ECCENTRICITY": 0.0010926, "INCLINATION": 97.7909, "RA_OF_ASC_NODE": 48.6206, "ARG_OF_PERICENTER": 323.1692, "MEAN_ANOMALY": 36.8768, "EPHEMERIS_TYPE": 0, "CLASSIFICATION_TYPE": "U", "NORAD_CAT_ID": 32783, "ELEMENT_SET_NO": 999, "REV_AT_EPOCH": 95308, "BSTAR": 0.00016185, "MEAN_MOTION_DOT": 1.145e-05, "MEAN_MOTION_DDOT": 0}, "tle": {"line1": "1 32783U 08021A   25359.18720198  .00001145  00000+0  16185-3 0  9998", "line2": "2 32783  97.7909  48.6206 0010926 323.1692  36.8768 14.78954815953081"}}, "geometry": {"type": "Point", "coordinates": [-93.55425705369466, 77.35552677968059]}}, {"type": "Feature", "properties": {"norad_id": 33320, "name": "HUANJING 1A (HJ-1A)", "group": "resource", "lat": 11.19444146380812, "lon": 168.7038787355047, "alt_km": 633.3770845740864, "timestamp": "2025-12-25T09:48:51.942918+00:00", "meta": {"OBJECT_NAME": "HUANJING 1A (HJ-1A)", "OBJECT_ID": "2008-041A", "EPOCH": "2025-12-25T05:49:08.863680", "MEAN_MOTION": 14.83431218, "ECCENTRICITY": 0.0019234, "INCLINATION": 97.6549, "RA_OF_ASC_NODE": 347.0191, "ARG_OF_PERICENTER": 354.464, "MEAN_ANOMALY": 5.6359, "EPHEMERIS_TYPE": 0, "CLASSIFICATION_TYPE": "U", "NORAD_CAT_ID": 33320, "ELEMENT_SET_NO": 999, "REV_AT_EPOCH": 93261, "BSTAR": 0.00018487, "MEAN_MOTION_DOT": 1.471e-05, "MEAN_MOTION_DDOT": 0}, "tle": {"line1": "1 33320U 08041A   25359.24246370  .00001471  00000+0  18487-3 0  9999", "line2": "2 33320  97.6549 347.0191 0019234 354.4640   5.6359 14.83431218932617"}}, "geometry": {"type": "Point", "coordinates": [168.7038787355047, 11.19444146380812]}}, {"type": "Feature", "properties": {"norad_id": 33321, "name": "HUANJING 1B (HJ-1B)", "group": "resource", "lat": 3.0286017357449313, "lon": -9.564608398252224, "alt_km": 600.6479799182653, "timestamp": "2025-12-25T09:48:51.942929+00:00", "meta": {"OBJECT_NAME": "HUANJING 1B (HJ-1B)", "OBJECT_ID": "2008-041B", "EPOCH": "2025-12-25T04:56:32.293248", "MEAN_MOTION": 14.82854123, "ECCENTRICITY": 0.0037706, "INCLINATION": 97.6406, "RA_OF_ASC_NODE": 350.6483, "ARG_OF_PERICENTER": 36.2647, "MEAN_ANOMALY": 324.1112, "EPHEMERIS_TYPE": 0, "CLASSIFICATION_TYPE": "U", "NORAD_CAT_ID": 33321, "ELEMENT_SET_NO": 999, "REV_AT_EPOCH": 93262, "BSTAR": 0.00023256, "MEAN_MOTION_DOT": 1.855e-05, "MEAN_MOTION_DDOT": 0}, "tle": {"line1": "1 33321U 08041B   25359.20592932  .00001855  00000+0  23256-3 0  9990", "line2": "2 33321  97.6406 350.6483 0037706  36.2647 324.1112 14.82854123932620"}}, "geometry": {"type": "Point", "coordinates": [-9.564608398252224, 3.0286017357449313]}}, {"type": "Feature", "properties": {"norad_id": 33331, "name": "GEOEYE 1", "group": "resource", "lat": -64.19051326482526, "lon": -126.64932971080438, "alt_km": 683.1466593196919, "timestamp": "2025-12-25T09:48:51.942939+00:00", "meta": {"OBJECT_NAME": "GEOEYE 1", "OBJECT_ID": "2008-042A", "EPOCH": "2025-12-25T02:08:21.698592", "MEAN_MOTION": 14.64716376, "ECCENTRICITY": 0.0003001, "INCLINATION": 98.1237, "RA_OF_ASC_NODE": 70.2135, "ARG_OF_PERICENTER": 231.2616, "MEAN_ANOMALY": 128.8319, "EPHEMERIS_TYPE": 0, "CLASSIFICATION_TYPE": "U", "NORAD_CAT_ID": 33331, "ELEMENT_SET_NO": 999, "REV_AT_EPOCH": 92466, "BSTAR": 0.00012284, "MEAN_MOTION_DOT": 6.06e-06, "MEAN_MOTION_DDOT": 0}, "tle": {"line1": "1 33331U 08042A   25359.08914003  .00000606  00000+0  12284-3 0  9997", "line2": "2 33331  98.1237  70.2135 0003001 231.2616 128.8319 14.64716376924662"}}, "geometry": {"type": "Point", "coordinates": [-126.64932971080438, -64.19051326482526]}}, {"type": "Feature", "properties": {"norad_id": 33396, "name": "THEOS", "group": "resource", "lat": -49.150385724939795, "lon": -132.93712672239312, "alt_km": 832.469496674953, "timestamp": "2025-12-25T09:48:51.942950+00:00", "meta": {"OBJECT_NAME": "THEOS", "OBJECT_ID": "2008-049A", "EPOCH": "2025-12-25T03:39:45.431424", "MEAN_MOTION": 14.20099185, "ECCENTRICITY": 0.0001183, "INCLINATION": 98.5845, "RA_OF_ASC_NODE": 56.875, "ARG_OF_PERICENTER": 93.974, "MEAN_ANOMALY": 266.1572, "EPHEMERIS_TYPE": 0, "CLASSIFICATION_TYPE": "U", "NORAD_CAT_ID": 33396, "ELEMENT_SET_NO": 999, "REV_AT_EPOCH": 89326, "BSTAR": 9.0086e-05, "MEAN_MOTION_DOT": 1.49e-06, "MEAN_MOTION_DDOT": 0}, "tle": {"line1": "1 33396U 08049A   25359.15260916  .00000149  00000+0  90086-4 0  9999", "line2": "2 33396  98.5845  56.8750 0001183  93.9740 266.1572 14.20099185893267"}}, "geometry": {"type": "Point", "coordinates": [-132.93712672239312, -49.150385724939795]}}, {"type": "Feature", "properties": {"norad_id": 33412, "name": "COSMO-SKYMED 3", "group": "resource", "lat": -61.316775835025524, "lon": 15.418095559160985, "alt_km": 561.6279738873527, "timestamp": "2025-12-25T09:48:51.942960+00:00", "meta": {"OBJECT_NAME": "COSMO-SKYMED 3", "OBJECT_ID": "2008-054A", "EPOCH": "2025-12-25T03:57:26.544384", "MEAN_MOTION": 15.05459489, "ECCENTRICITY": 0.0017093, "INCLINATION": 97.845, "RA_OF_ASC_NODE": 209.7668, "ARG_OF_PERICENTER": 131.4151, "MEAN_ANOMALY": 228.8547, "EPHEMERIS_TYPE": 0, "CLASSIFICATION_TYPE": "U", "NORAD_CAT_ID": 33412, "ELEMENT_SET_NO": 999, "REV_AT_EPOCH": 93074, "BSTAR": 0.00026107, "MEAN_MOTION_DOT": 3.697e-05, "MEAN_MOTION_DDOT": 0}, "tle": {"line1": "1 33412U 08054A   25359.16489056  .00003697  00000+0  26107-3 0  9996", "line2": "2 33412  97.8450 209.7668 0017093 131.4151 228.8547 15.05459489930741"}}, "geometry": {"type": "Point", "coordinates": [15.418095559160985, -61.316775835025524]}}, {"type": "Feature", "properties": {"norad_id": 33446, "name": "YAOGAN-4", "group": "resource", "lat": -82.02196904984517, "lon": 26.03242439041405, "alt_km": 619.1509801654865, "timestamp": "2025-12-25T09:48:51.942975+00:00", "meta": {"OBJECT_NAME": "YAOGAN-4", "OBJECT_ID": "2008-061A", "EPOCH": "2025-12-25T02:07:30.287136", "MEAN_MOTION": 14.82717433, "ECCENTRICITY": 0.0012975, "INCLINATION": 97.9198, "RA_OF_ASC_NODE": 289.0675, "ARG_OF_PERICENTER": 279.4954, "MEAN_ANOMALY": 80.4792, "EPHEMERIS_TYPE": 0, "CLASSIFICATION_TYPE": "U", "NORAD_CAT_ID": 33446, "ELEMENT_SET_NO": 999, "REV_AT_EPOCH": 91986, "BSTAR": 0.00017896, "MEAN_MOTION_DOT": 1.392e-05, "MEAN_MOTION_DDOT": 0}, "tle": {"line1": "1 33446U 08061A   25359.08854499  .00001392  00000+0  17896-3 0  9994", "line2": "2 33446  97.9198 289.0675 0012975 279.4954  80.4792 14.82717433919869"}}, "geometry": {"type": "Point", "coordinates": [26.03242439041405, -82.02196904984517]}}]}